[{"OBJECT_NAME":"ALOS (DAICHI)","OBJECT_ID":"2006-002A","EPOCH":"2026-04-03T21:28:41.280672","MEAN_MOTION":14.69893925,"ECCENTRICITY":0.0001108,"INCLINATION":98.1261,"RA_OF_ASC_NODE":49.732,"ARG_OF_PERICENTER":115.1517,"MEAN_ANOMALY":244.9803,"EPHEMERIS_TYPE":0,"CLASSIFICATION_TYPE":"U","NORAD_CAT_ID":28931,"ELEMENT_SET_NO":999,"REV_AT_EPOCH":7718,"BSTAR":0.00043922,"MEAN_MOTION_DOT":2.578e-5,"MEAN_MOTION_DDOT":0},{"OBJECT_NAME":"H-2A R/B","OBJECT_ID":"2006-002B","EPOCH":"2026-04-03T21:03:16.752672","MEAN_MOTION":15.17029295,"ECCENTRICITY":0.0052463,"INCLINATION":98.2464,"RA_OF_ASC_NODE":243.0851,"ARG_OF_PERICENTER":155.1006,"MEAN_ANOMALY":205.2773,"EPHEMERIS_TYPE":0,"CLASSIFICATION_TYPE":"U","NORAD_CAT_ID":28932,"ELEMENT_SET_NO":999,"REV_AT_EPOCH":9825,"BSTAR":0.00090644,"MEAN_MOTION_DOT":0.00018525,"MEAN_MOTION_DDOT":0},{"OBJECT_NAME":"RESURS-DK 1","OBJECT_ID":"2006-021A","EPOCH":"2026-04-03T14:16:56.380800","MEAN_MOTION":15.12902821,"ECCENTRICITY":0.0001899,"INCLINATION":69.9335,"RA_OF_ASC_NODE":172.5971,"ARG_OF_PERICENTER":37.3825,"MEAN_ANOMALY":322.7473,"EPHEMERIS_TYPE":0,"CLASSIFICATION_TYPE":"U","NORAD_CAT_ID":29228,"ELEMENT_SET_NO":999,"REV_AT_EPOCH":9129,"BSTAR":0.00024586,"MEAN_MOTION_DOT":4.233e-5,"MEAN_MOTION_DDOT":0},{"OBJECT_NAME":"CZ-4B R/B","OBJECT_ID":"2006-046C","EPOCH":"2026-04-03T16:10:45.314112","MEAN_MOTION":15.17174491,"ECCENTRICITY":0.0033278,"INCLINATION":97.5537,"RA_OF_ASC_NODE":138.5131,"ARG_OF_PERICENTER":178.3377,"MEAN_ANOMALY":181.7973,"EPHEMERIS_TYPE":0,"CLASSIFICATION_TYPE":"U","NORAD_CAT_ID":29507,"ELEMENT_SET_NO":999,"REV_AT_EPOCH":6383,"BSTAR":0.00046327,"MEAN_MOTION_DOT":9.266e-5,"MEAN_MOTION_DDOT":0},{"OBJECT_NAME":"CZ-2C R/B","OBJECT_ID":"2007-010B","EPOCH":"2026-04-03T21:02:21.141312","MEAN_MOTION":14.20256166,"ECCENTRICITY":0.0058321,"INCLINATION":98.4005,"RA_OF_ASC_NODE":205.8963,"ARG_OF_PERICENTER":220.0699,"MEAN_ANOMALY":139.617,"EPHEMERIS_TYPE":0,"CLASSIFICATION_TYPE":"U","NORAD_CAT_ID":31114,"ELEMENT_SET_NO":999,"REV_AT_EPOCH":98329,"BSTAR":0.0001251,"MEAN_MOTION_DOT":2.31e-6,"MEAN_MOTION_DDOT":0},{"OBJECT_NAME":"COSMOS 2428","OBJECT_ID":"2007-029A","EPOCH":"2026-04-03T14:18:26.506368","MEAN_MOTION":14.12948958,"ECCENTRICITY":0.0009697,"INCLINATION":70.9424,"RA_OF_ASC_NODE":151.0698,"ARG_OF_PERICENTER":251.2339,"MEAN_ANOMALY":108.773,"EPHEMERIS_TYPE":0,"CLASSIFICATION_TYPE":"U","NORAD_CAT_ID":31792,"ELEMENT_SET_NO":999,"REV_AT_EPOCH":96761,"BSTAR":3.1289e-5,"MEAN_MOTION_DOT":1.0e-7,"MEAN_MOTION_DDOT":0},{"OBJECT_NAME":"SL-16 R/B","OBJECT_ID":"2007-029B","EPOCH":"2026-04-03T12:44:09.642624","MEAN_MOTION":14.14843981,"ECCENTRICITY":0.00028908,"INCLINATION":70.974,"RA_OF_ASC_NODE":120.1684,"ARG_OF_PERICENTER":276.97,"MEAN_ANOMALY":193.7472,"EPHEMERIS_TYPE":0,"CLASSIFICATION_TYPE":"U","NORAD_CAT_ID":31793,"ELEMENT_SET_NO":999,"REV_AT_EPOCH":96888,"BSTAR":-1.3257789e-5,"MEAN_MOTION_DOT":-7.3e-7,"MEAN_MOTION_DDOT":0},{"OBJECT_NAME":"KORONAS-FOTON","OBJECT_ID":"2009-003A","EPOCH":"2026-04-03T20:25:29.540640","MEAN_MOTION":15.44058563,"ECCENTRICITY":0.0011465,"INCLINATION":82.4284,"RA_OF_ASC_NODE":249.7014,"ARG_OF_PERICENTER":67.6718,"MEAN_ANOMALY":292.5744,"EPHEMERIS_TYPE":0,"CLASSIFICATION_TYPE":"U","NORAD_CAT_ID":33504,"ELEMENT_SET_NO":999,"REV_AT_EPOCH":94962,"BSTAR":0.00053096,"MEAN_MOTION_DOT":0.00024373,"MEAN_MOTION_DDOT":0},{"OBJECT_NAME":"CZ-2C R/B","OBJECT_ID":"2011-030B","EPOCH":"2026-04-03T21:00:21.300192","MEAN_MOTION":14.81315501,"ECCENTRICITY":0.0050925,"INCLINATION":97.8589,"RA_OF_ASC_NODE":50.643,"ARG_OF_PERICENTER":268.4412,"MEAN_ANOMALY":148.7353,"EPHEMERIS_TYPE":0,"CLASSIFICATION_TYPE":"U","NORAD_CAT_ID":37731,"ELEMENT_SET_NO":999,"REV_AT_EPOCH":79382,"BSTAR":0.00032107,"MEAN_MOTION_DOT":2.507e-5,"MEAN_MOTION_DDOT":0},{"OBJECT_NAME":"H-2A R/B","OBJECT_ID":"2012-025E","EPOCH":"2026-04-03T21:21:40.446144","MEAN_MOTION":14.95351172,"ECCENTRICITY":0.0043226,"INCLINATION":98.4773,"RA_OF_ASC_NODE":62.9643,"ARG_OF_PERICENTER":229.4419,"MEAN_ANOMALY":130.3033,"EPHEMERIS_TYPE":0,"CLASSIFICATION_TYPE":"U","NORAD_CAT_ID":38341,"ELEMENT_SET_NO":999,"REV_AT_EPOCH":75198,"BSTAR":0.00043151,"MEAN_MOTION_DOT":4.781e-5,"MEAN_MOTION_DDOT":0},{"OBJECT_NAME":"SHIJIAN-16 (SJ-16)","OBJECT_ID":"2013-057A","EPOCH":"2026-04-03T20:02:06.417600","MEAN_MOTION":14.92440646,"ECCENTRICITY":0.0015329,"INCLINATION":74.9715,"RA_OF_ASC_NODE":137.4864,"ARG_OF_PERICENTER":47.3009,"MEAN_ANOMALY":312.9467,"EPHEMERIS_TYPE":0,"CLASSIFICATION_TYPE":"U","NORAD_CAT_ID":39358,"ELEMENT_SET_NO":999,"REV_AT_EPOCH":67525,"BSTAR":0.00018025,"MEAN_MOTION_DOT":1.823e-5,"MEAN_MOTION_DDOT":0},{"OBJECT_NAME":"SL-4 R/B","OBJECT_ID":"2014-021B","EPOCH":"2026-04-03T17:57:42.955776","MEAN_MOTION":15.40122549,"ECCENTRICITY":0.009452,"INCLINATION":51.6063,"RA_OF_ASC_NODE":214.9494,"ARG_OF_PERICENTER":194.422,"MEAN_ANOMALY":165.4063,"EPHEMERIS_TYPE":0,"CLASSIFICATION_TYPE":"U","NORAD_CAT_ID":39679,"ELEMENT_SET_NO":999,"REV_AT_EPOCH":66013,"BSTAR":0.00054336,"MEAN_MOTION_DOT":0.0002556,"MEAN_MOTION_DDOT":0},{"OBJECT_NAME":"ALOS-2","OBJECT_ID":"2014-029A","EPOCH":"2026-04-03T03:13:18.249600","MEAN_MOTION":14.79449708,"ECCENTRICITY":0.00018735,"INCLINATION":97.9197,"RA_OF_ASC_NODE":191.3762,"ARG_OF_PERICENTER":101.9153,"MEAN_ANOMALY":258.2269,"EPHEMERIS_TYPE":0,"CLASSIFICATION_TYPE":"U","NORAD_CAT_ID":39766,"ELEMENT_SET_NO":999,"REV_AT_EPOCH":64048,"BSTAR":3.6025367e-5,"MEAN_MOTION_DOT":2.18e-6,"MEAN_MOTION_DDOT":0},{"OBJECT_NAME":"YAOGAN-29","OBJECT_ID":"2015-069A","EPOCH":"2026-04-03T19:50:02.275872","MEAN_MOTION":14.83023331,"ECCENTRICITY":1.01e-5,"INCLINATION":98.0102,"RA_OF_ASC_NODE":122.3192,"ARG_OF_PERICENTER":195.1511,"MEAN_ANOMALY":164.9699,"EPHEMERIS_TYPE":0,"CLASSIFICATION_TYPE":"U","NORAD_CAT_ID":41038,"ELEMENT_SET_NO":999,"REV_AT_EPOCH":55960,"BSTAR":9.5567e-5,"MEAN_MOTION_DOT":7.23e-6,"MEAN_MOTION_DDOT":0},{"OBJECT_NAME":"ASTRO-H (HITOMI)","OBJECT_ID":"2016-012A","EPOCH":"2026-04-03T14:52:10.371072","MEAN_MOTION":15.10171847,"ECCENTRICITY":0.0009679,"INCLINATION":30.999,"RA_OF_ASC_NODE":195.6484,"ARG_OF_PERICENTER":222.5414,"MEAN_ANOMALY":137.4474,"EPHEMERIS_TYPE":0,"CLASSIFICATION_TYPE":"U","NORAD_CAT_ID":41337,"ELEMENT_SET_NO":999,"REV_AT_EPOCH":55600,"BSTAR":0.00028817,"MEAN_MOTION_DOT":4.921e-5,"MEAN_MOTION_DDOT":0},{"OBJECT_NAME":"HXMT (HUIYAN)","OBJECT_ID":"2017-034A","EPOCH":"2026-04-03T18:54:18.252864","MEAN_MOTION":15.17801195,"ECCENTRICITY":0.0031031,"INCLINATION":43.0138,"RA_OF_ASC_NODE":237.1025,"ARG_OF_PERICENTER":31.4021,"MEAN_ANOMALY":328.8673,"EPHEMERIS_TYPE":0,"CLASSIFICATION_TYPE":"U","NORAD_CAT_ID":42758,"ELEMENT_SET_NO":999,"REV_AT_EPOCH":48635,"BSTAR":0.00054601,"MEAN_MOTION_DOT":0.00011156,"MEAN_MOTION_DDOT":0}]
